[{"OBJECT_NAME":"STARLINK-31554","OBJECT_ID":"2024-045T","EPOCH":"2026-03-09T10:58:10.623360","MEAN_MOTION":15.27573123,"ECCENTRICITY":0.00014722,"INCLINATION":43.0054,"RA_OF_ASC_NODE":94.0421,"ARG_OF_PERICENTER":276.0564,"MEAN_ANOMALY":84.012,"EPHEMERIS_TYPE":0,"CLASSIFICATION_TYPE":"U","NORAD_CAT_ID":59195,"ELEMENT_SET_NO":999,"REV_AT_EPOCH":11312,"BSTAR":-2.7212081e-5,"MEAN_MOTION_DOT":-1.011e-5,"MEAN_MOTION_DDOT":0},{"OBJECT_NAME":"TITAN 3C TRANSTAGE DEB","OBJECT_ID":"1965-082PT","EPOCH":"2026-03-09T13:23:41.116128","MEAN_MOTION":15.28908269,"ECCENTRICITY":0.00104371,"INCLINATION":32.0266,"RA_OF_ASC_NODE":255.1391,"ARG_OF_PERICENTER":172.8339,"MEAN_ANOMALY":187.2474,"EPHEMERIS_TYPE":0,"CLASSIFICATION_TYPE":"U","NORAD_CAT_ID":3462,"ELEMENT_SET_NO":999,"REV_AT_EPOCH":24824,"BSTAR":0.0004444037,"MEAN_MOTION_DOT":0.00012939,"MEAN_MOTION_DDOT":0}]
